{"type": "FeatureCollection", "features": [ {"type": "Feature", "properties": {"norad_id": 40701, "name": "GAOFEN-8", "group": "resource", "lat": -32.80179121122216, "lon": -7.08285917908164, "alt_km": 458.9518486248098, "timestamp": "2025-12-25T03:55:55.963515+00:00", "meta": {"OBJECT_NAME": "GAOFEN-8", "OBJECT_ID": "2015-030A", "EPOCH": "2025-12-24T20:46:06.736800", "MEAN_MOTION": 15.38980685, "ECCENTRICITY": 0.0011345, "INCLINATION": 97.6897, "RA_OF_ASC_NODE": 177.5999, "ARG_OF_PERICENTER": 95.6415, "MEAN_ANOMALY": 264.6124, "EPHEMERIS_TYPE": 0, "CLASSIFICATION_TYPE": "U", "NORAD_CAT_ID": 40701, "ELEMENT_SET_NO": 999, "REV_AT_EPOCH": 58457, "BSTAR": 0.0010284, "MEAN_MOTION_DOT": 0.00039841, "MEAN_MOTION_DDOT": 0}, "tle": {"line1": "1 40701U 15030A   25358.86535575  .00039841  00000+0  10284-2 0  9999", "line2": "2 40701  97.6897 177.5999 0011345  95.6415 264.6124 15.38980685584578"}}, "geometry": {"type": "Point", "coordinates": [-7.08285917908164, -32.80179121122216]}}, {"type": "Feature", "properties": {"norad_id": 40718, "name": "CARBONITE 1 (CBNT-1)", "group": "resource", "lat": 15.45867541910598, "lon": 1.7886405801510663, "alt_km": 611.4117272905005, "timestamp": "2025-12-25T03:55:55.963529+00:00", "meta": {"OBJECT_NAME": "CARBONITE 1 (CBNT-1)", "OBJECT_ID": "2015-032D", "EPOCH": "2025-12-24T19:05:48.187968", "MEAN_MOTION": 14.82802122, "ECCENTRICITY": 0.0015335, "INCLINATION": 97.6402, "RA_OF_ASC_NODE": 179.3094, "ARG_OF_PERICENTER": 142.4982, "MEAN_ANOMALY": 217.7305, "EPHEMERIS_TYPE": 0, "CLASSIFICATION_TYPE": "U", "NORAD_CAT_ID": 40718, "ELEMENT_SET_NO": 999, "REV_AT_EPOCH": 56349, "BSTAR": 0.00069406, "MEAN_MOTION_DOT": 5.577e-05, "MEAN_MOTION_DDOT": 0}, "tle": {"line1": "1 40718U 15032D   25358.79569662  .00005577  00000+0  69406-3 0  9995", "line2": "2 40718  97.6402 179.3094 0015335 142.4982 217.7305 14.82802122563492"}}, "geometry": {"type": "Point", "coordinates": [1.7886405801510663, 15.45867541910598]}}, {"type": "Feature", "properties": {"norad_id": 40878, "name": "YAOGAN-27", "group": "resource", "lat": -21.564747638595033, "lon": -7.7383488273220795, "alt_km": 1204.122318752984, "timestamp": "2025-12-25T03:55:55.963544+00:00", "meta": {"OBJECT_NAME": "YAOGAN-27", "OBJECT_ID": "2015-040A", "EPOCH": "2025-12-24T20:44:43.106784", "MEAN_MOTION": 13.16062326, "ECCENTRICITY": 0.0007556, "INCLINATION": 100.1018, "RA_OF_ASC_NODE": 347.9358, "ARG_OF_PERICENTER": 256.4362, "MEAN_ANOMALY": 103.5911, "EPHEMERIS_TYPE": 0, "CLASSIFICATION_TYPE": "U", "NORAD_CAT_ID": 40878, "ELEMENT_SET_NO": 999, "REV_AT_EPOCH": 49473, "BSTAR": 0.00084054, "MEAN_MOTION_DOT": 2.77e-06, "MEAN_MOTION_DDOT": 0}, "tle": {"line1": "1 40878U 15040A   25358.86438781  .00000277  00000+0  84054-3 0  9994", "line2": "2 40878 100.1018 347.9358 0007556 256.4362 103.5911 13.16062326494737"}}, "geometry": {"type": "Point", "coordinates": [-7.7383488273220795, -21.564747638595033]}}, {"type": "Feature", "properties": {"norad_id": 40894, "name": "GAOFEN-9 01", "group": "resource", "lat": 68.95108373168799, "lon": 17.132763821016965, "alt_km": 610.3082156400524, "timestamp": "2025-12-25T03:55:55.963554+00:00", "meta": {"OBJECT_NAME": "GAOFEN-9 01", "OBJECT_ID": "2015-047A", "EPOCH": "2025-12-24T21:08:15.382176", "MEAN_MOTION": 14.82450755, "ECCENTRICITY": 0.00274, "INCLINATION": 97.6527, "RA_OF_ASC_NODE": 37.3111, "ARG_OF_PERICENTER": 355.029, "MEAN_ANOMALY": 5.0647, "EPHEMERIS_TYPE": 0, "CLASSIFICATION_TYPE": "U", "NORAD_CAT_ID": 40894, "ELEMENT_SET_NO": 999, "REV_AT_EPOCH": 55436, "BSTAR": 0.00013947, "MEAN_MOTION_DOT": 1.074e-05, "MEAN_MOTION_DDOT": 0}, "tle": {"line1": "1 40894U 15047A   25358.88073359  .00001074  00000+0  13947-3 0  9996", "line2": "2 40894  97.6527  37.3111 0027400 355.0290   5.0647 14.82450755554362"}}, "geometry": {"type": "Point", "coordinates": [17.132763821016965, 68.95108373168799]}}, {"type": "Feature", "properties": {"norad_id": 41026, "name": "YAOGAN-28", "group": "resource", "lat": -61.79861480921838, "lon": 150.40273209381232, "alt_km": 506.83207362427856, "timestamp": "2025-12-25T03:55:55.963565+00:00", "meta": {"OBJECT_NAME": "YAOGAN-28", "OBJECT_ID": "2015-064A", "EPOCH": "2025-12-24T20:19:50.843136", "MEAN_MOTION": 15.24541015, "ECCENTRICITY": 0.0012669, "INCLINATION": 97.2817, "RA_OF_ASC_NODE": 136.2993, "ARG_OF_PERICENTER": 87.6693, "MEAN_ANOMALY": 272.5995, "EPHEMERIS_TYPE": 0, "CLASSIFICATION_TYPE": "U", "NORAD_CAT_ID": 41026, "ELEMENT_SET_NO": 999, "REV_AT_EPOCH": 56409, "BSTAR": 0.00032839, "MEAN_MOTION_DOT": 8.033e-05, "MEAN_MOTION_DDOT": 0}, "tle": {"line1": "1 41026U 15064A   25358.84711624  .00008033  00000+0  32839-3 0  9996", "line2": "2 41026  97.2817 136.2993 0012669  87.6693 272.5995 15.24541015564096"}}, "geometry": {"type": "Point", "coordinates": [150.40273209381232, -61.79861480921838]}}, {"type": "Feature", "properties": {"norad_id": 41038, "name": "YAOGAN-29", "group": "resource", "lat": -21.436024926713756, "lon": 25.547758938479205, "alt_km": 626.1498914148196, "timestamp": "2025-12-25T03:55:55.963575+00:00", "meta": {"OBJECT_NAME": "YAOGAN-29", "OBJECT_ID": "2015-069A", "EPOCH": "2025-12-24T19:55:56.898624", "MEAN_MOTION": 14.82895051, "ECCENTRICITY": 8.82e-05, "INCLINATION": 98.0205, "RA_OF_ASC_NODE": 22.0399, "ARG_OF_PERICENTER": 165.8898, "MEAN_ANOMALY": 194.2339, "EPHEMERIS_TYPE": 0, "CLASSIFICATION_TYPE": "U", "NORAD_CAT_ID": 41038, "ELEMENT_SET_NO": 999, "REV_AT_EPOCH": 54478, "BSTAR": 8.3812e-05, "MEAN_MOTION_DOT": 6.25e-06, "MEAN_MOTION_DDOT": 0}, "tle": {"line1": "1 41038U 15069A   25358.83051966  .00000625  00000+0  83812-4 0  9996", "line2": "2 41038  98.0205  22.0399 0000882 165.8898 194.2339 14.82895051544782"}}, "geometry": {"type": "Point", "coordinates": [25.547758938479205, -21.436024926713756]}}, {"type": "Feature", "properties": {"norad_id": 41167, "name": "KENT RIDGE 1", "group": "resource", "lat": 2.9512883898274542, "lon": 130.06515699510328, "alt_km": 495.03189588168516, "timestamp": "2025-12-25T03:55:55.963585+00:00", "meta": {"OBJECT_NAME": "KENT RIDGE 1", "OBJECT_ID": "2015-077B", "EPOCH": "2025-12-24T16:52:12.586944", "MEAN_MOTION": 15.21723341, "ECCENTRICITY": 0.0008543, "INCLINATION": 14.9791, "RA_OF_ASC_NODE": 122.3638, "ARG_OF_PERICENTER": 299.601, "MEAN_ANOMALY": 60.3461, "EPHEMERIS_TYPE": 0, "CLASSIFICATION_TYPE": "U", "NORAD_CAT_ID": 41167, "ELEMENT_SET_NO": 999, "REV_AT_EPOCH": 55446, "BSTAR": 0.0001674, "MEAN_MOTION_DOT": 4.663e-05, "MEAN_MOTION_DDOT": 0}, "tle": {"line1": "1 41167U 15077B   25358.70292346  .00004663  00000+0  16740-3 0  9994", "line2": "2 41167  14.9791 122.3638 0008543 299.6010  60.3461 15.21723341554467"}}, "geometry": {"type": "Point", "coordinates": [130.06515699510328, 2.9512883898274542]}}, {"type": "Feature", "properties": {"norad_id": 41194, "name": "GAOFEN-4", "group": "resource", "lat": -0.007348064927183446, "lon": -101.35110458193955, "alt_km": 35785.20227298039, "timestamp": "2025-12-25T03:55:55.963599+00:00", "meta": {"OBJECT_NAME": "GAOFEN-4", "OBJECT_ID": "2015-083A", "EPOCH": "2025-12-24T20:26:58.837632", "MEAN_MOTION": 1.00270244, "ECCENTRICITY": 0.0002831, "INCLINATION": 0.1997, "RA_OF_ASC_NODE": 81.8726, "ARG_OF_PERICENTER": 93.4021, "MEAN_ANOMALY": 330.8049, "EPHEMERIS_TYPE": 0, "CLASSIFICATION_TYPE": "U", "NORAD_CAT_ID": 41194, "ELEMENT_SET_NO": 999, "REV_AT_EPOCH": 3678, "BSTAR": 0, "MEAN_MOTION_DOT": -3.14e-06, "MEAN_MOTION_DDOT": 0}, "tle": {"line1": "1 41194U 15083A   25358.85206988 -.00000314  00000+0  00000+0 0  9992", "line2": "2 41194   0.1997  81.8726 0002831  93.4021 330.8049  1.00270244 36783"}}, "geometry": {"type": "Point", "coordinates": [-101.35110458193955, -0.007348064927183446]}}, {"type": "Feature", "properties": {"norad_id": 41240, "name": "JASON-3", "group": "resource", "lat": -54.38717745435171, "lon": 93.33209674397192, "alt_km": 1312.021983988001, "timestamp": "2025-12-25T03:55:55.963610+00:00", "meta": {"OBJECT_NAME": "JASON-3", "OBJECT_ID": "2016-002A", "EPOCH": "2025-12-24T18:56:13.977024", "MEAN_MOTION": 12.87627054, "ECCENTRICITY": 0.0007289, "INCLINATION": 66.0404, "RA_OF_ASC_NODE": 132.4917, "ARG_OF_PERICENTER": 271.5028, "MEAN_ANOMALY": 88.5156, "EPHEMERIS_TYPE": 0, "CLASSIFICATION_TYPE": "U", "NORAD_CAT_ID": 41240, "ELEMENT_SET_NO": 999, "REV_AT_EPOCH": 46479, "BSTAR": 0.00010955, "MEAN_MOTION_DOT": -3.5e-07, "MEAN_MOTION_DDOT": 0}, "tle": {"line1": "1 41240U 16002A   25358.78905066 -.00000035  00000+0  10955-3 0  9995", "line2": "2 41240  66.0404 132.4917 0007289 271.5028  88.5156 12.87627054464796"}}, "geometry": {"type": "Point", "coordinates": [93.33209674397192, -54.38717745435171]}}, {"type": "Feature", "properties": {"norad_id": 41335, "name": "SENTINEL-3A", "group": "resource", "lat": 49.232819010532694, "lon": 53.857813317311575, "alt_km": 797.7241092548074, "timestamp": "2025-12-25T03:55:55.963620+00:00", "meta": {"OBJECT_NAME": "SENTINEL-3A", "OBJECT_ID": "2016-011A", "EPOCH": "2025-12-24T19:16:59.109024", "MEAN_MOTION": 14.26735196, "ECCENTRICITY": 8.92e-05, "INCLINATION": 98.6298, "RA_OF_ASC_NODE": 63.6476, "ARG_OF_PERICENTER": 97.2299, "MEAN_ANOMALY": 262.8982, "EPHEMERIS_TYPE": 0, "CLASSIFICATION_TYPE": "U", "NORAD_CAT_ID": 41335, "ELEMENT_SET_NO": 999, "REV_AT_EPOCH": 51319, "BSTAR": 7.1918e-05, "MEAN_MOTION_DOT": 1.3e-06, "MEAN_MOTION_DDOT": 0}, "tle": {"line1": "1 41335U 16011A   25358.80346191  .00000130  00000+0  71918-4 0  9993", "line2": "2 41335  98.6298  63.6476 0000892  97.2299 262.8982 14.26735196513199"}}, "geometry": {"type": "Point", "coordinates": [53.857813317311575, 49.232819010532694]}}]}